CCSDS_OMM_VERS = 2.0
CREATION_DATE  = 
ORIGINATOR     = 

OBJECT_NAME    = QIANFAN-96
OBJECT_ID      = 2025-233F
CENTER_NAME    = EARTH
REF_FRAME      = TEME
TIME_SYSTEM    = UTC
MEAN_ELEMENT_THEORY = SGP/SGP4

EPOCH          = 2025-11-04T14:00:38.500416
MEAN_MOTION    = 14.26155132
ECCENTRICITY   = .0016012
INCLINATION    = 88.9951
RA_OF_ASC_NODE = 66.4228
ARG_OF_PERICENTER = 155.7380
MEAN_ANOMALY   = 204.4571

EPHEMERIS_TYPE = 0
CLASSIFICATION_TYPE = U
NORAD_CAT_ID   = 66038
ELEMENT_SET_NO = 999
REV_AT_EPOCH   = 260
BSTAR          = .26010299E-3
MEAN_MOTION_DOT = .637E-5
MEAN_MOTION_DDOT = 0

CCSDS_OMM_VERS = 2.0
CREATION_DATE  = 
ORIGINATOR     = 

OBJECT_NAME    = QIANFAN-97
OBJECT_ID      = 2025-233G
CENTER_NAME    = EARTH
REF_FRAME      = TEME
TIME_SYSTEM    = UTC
MEAN_ELEMENT_THEORY = SGP/SGP4

EPOCH          = 2025-11-04T14:00:30.371904
MEAN_MOTION    = 14.26161050
ECCENTRICITY   = .0015584
INCLINATION    = 88.9951
RA_OF_ASC_NODE = 66.4228
ARG_OF_PERICENTER = 155.1826
MEAN_ANOMALY   = 205.0121

EPHEMERIS_TYPE = 0
CLASSIFICATION_TYPE = U
NORAD_CAT_ID   = 66039
ELEMENT_SET_NO = 999
REV_AT_EPOCH   = 260
BSTAR          = .26056842E-3
MEAN_MOTION_DOT = .639E-5
MEAN_MOTION_DDOT = 0

CCSDS_OMM_VERS = 2.0
CREATION_DATE  = 
ORIGINATOR     = 

OBJECT_NAME    = QIANFAN-98
OBJECT_ID      = 2025-233H
CENTER_NAME    = EARTH
REF_FRAME      = TEME
TIME_SYSTEM    = UTC
MEAN_ELEMENT_THEORY = SGP/SGP4

EPOCH          = 2025-11-04T14:00:09.231552
MEAN_MOTION    = 14.26182548
ECCENTRICITY   = .00152121
INCLINATION    = 88.9951
RA_OF_ASC_NODE = 66.4229
ARG_OF_PERICENTER = 153.9161
MEAN_ANOMALY   = 206.2802

EPHEMERIS_TYPE = 0
CLASSIFICATION_TYPE = U
NORAD_CAT_ID   = 66040
ELEMENT_SET_NO = 999
REV_AT_EPOCH   = 260
BSTAR          = .26857325E-3
MEAN_MOTION_DOT = .658E-5
MEAN_MOTION_DDOT = 0

CCSDS_OMM_VERS = 2.0
CREATION_DATE  = 
ORIGINATOR     = 

OBJECT_NAME    = QIANFAN-99
OBJECT_ID      = 2025-233J
CENTER_NAME    = EARTH
REF_FRAME      = TEME
TIME_SYSTEM    = UTC
MEAN_ELEMENT_THEORY = SGP/SGP4

EPOCH          = 2025-11-04T13:59:58.206048
MEAN_MOTION    = 14.26198012
ECCENTRICITY   = .00153615
INCLINATION    = 88.9951
RA_OF_ASC_NODE = 66.4228
ARG_OF_PERICENTER = 153.0413
MEAN_ANOMALY   = 207.1581

EPHEMERIS_TYPE = 0
CLASSIFICATION_TYPE = U
NORAD_CAT_ID   = 66041
ELEMENT_SET_NO = 999
REV_AT_EPOCH   = 260
BSTAR          = .26405939E-3
MEAN_MOTION_DOT = .647E-5
MEAN_MOTION_DDOT = 0

CCSDS_OMM_VERS = 2.0
CREATION_DATE  = 
ORIGINATOR     = 

OBJECT_NAME    = QIANFAN-100
OBJECT_ID      = 2025-233K
CENTER_NAME    = EARTH
REF_FRAME      = TEME
TIME_SYSTEM    = UTC
MEAN_ELEMENT_THEORY = SGP/SGP4

EPOCH          = 2025-11-04T13:59:52.074240
MEAN_MOTION    = 14.26213579
ECCENTRICITY   = .00158126
INCLINATION    = 88.9951
RA_OF_ASC_NODE = 66.4229
ARG_OF_PERICENTER = 154.7165
MEAN_ANOMALY   = 205.4806

EPHEMERIS_TYPE = 0
CLASSIFICATION_TYPE = U
NORAD_CAT_ID   = 66042
ELEMENT_SET_NO = 999
REV_AT_EPOCH   = 260
BSTAR          = .25889086E-3
MEAN_MOTION_DOT = .635E-5
MEAN_MOTION_DDOT = 0

CCSDS_OMM_VERS = 2.0
CREATION_DATE  = 
ORIGINATOR     = 

OBJECT_NAME    = QIANFAN-101
OBJECT_ID      = 2025-233L
CENTER_NAME    = EARTH
REF_FRAME      = TEME
TIME_SYSTEM    = UTC
MEAN_ELEMENT_THEORY = SGP/SGP4

EPOCH          = 2025-11-04T13:56:29.212224
MEAN_MOTION    = 14.26634618
ECCENTRICITY   = .00157423
INCLINATION    = 88.9951
RA_OF_ASC_NODE = 66.4224
ARG_OF_PERICENTER = 152.9651
MEAN_ANOMALY   = 207.2366

EPHEMERIS_TYPE = 0
CLASSIFICATION_TYPE = U
NORAD_CAT_ID   = 66043
ELEMENT_SET_NO = 999
REV_AT_EPOCH   = 260
BSTAR          = .17119283E-3
MEAN_MOTION_DOT = .428E-5
MEAN_MOTION_DDOT = 0

CCSDS_OMM_VERS = 2.0
CREATION_DATE  = 
ORIGINATOR     = 

OBJECT_NAME    = QIANFAN-102
OBJECT_ID      = 2025-233M
CENTER_NAME    = EARTH
REF_FRAME      = TEME
TIME_SYSTEM    = UTC
MEAN_ELEMENT_THEORY = SGP/SGP4

EPOCH          = 2025-11-04T13:59:43.041984
MEAN_MOTION    = 14.26217805
ECCENTRICITY   = .0016166
INCLINATION    = 88.9950
RA_OF_ASC_NODE = 66.4227
ARG_OF_PERICENTER = 154.8251
MEAN_ANOMALY   = 205.3734

EPHEMERIS_TYPE = 0
CLASSIFICATION_TYPE = U
NORAD_CAT_ID   = 66044
ELEMENT_SET_NO = 999
REV_AT_EPOCH   = 260
BSTAR          = .27580996E-3
MEAN_MOTION_DOT = .676E-5
MEAN_MOTION_DDOT = 0

CCSDS_OMM_VERS = 2.0
CREATION_DATE  = 
ORIGINATOR     = 

OBJECT_NAME    = QIANFAN-103
OBJECT_ID      = 2025-233N
CENTER_NAME    = EARTH
REF_FRAME      = TEME
TIME_SYSTEM    = UTC
MEAN_ELEMENT_THEORY = SGP/SGP4

EPOCH          = 2025-11-04T13:59:18.175200
MEAN_MOTION    = 14.26246975
ECCENTRICITY   = .00155689
INCLINATION    = 88.9951
RA_OF_ASC_NODE = 66.4229
ARG_OF_PERICENTER = 153.5875
MEAN_ANOMALY   = 206.6116

EPHEMERIS_TYPE = 0
CLASSIFICATION_TYPE = U
NORAD_CAT_ID   = 66045
ELEMENT_SET_NO = 999
REV_AT_EPOCH   = 260
BSTAR          = .26786664E-3
MEAN_MOTION_DOT = .657E-5
MEAN_MOTION_DDOT = 0

CCSDS_OMM_VERS = 2.0
CREATION_DATE  = 
ORIGINATOR     = 

OBJECT_NAME    = QIANFAN-104
OBJECT_ID      = 2025-233P
CENTER_NAME    = EARTH
REF_FRAME      = TEME
TIME_SYSTEM    = UTC
MEAN_ELEMENT_THEORY = SGP/SGP4

EPOCH          = 2025-11-04T13:58:59.866176
MEAN_MOTION    = 14.26267761
ECCENTRICITY   = .00155436
INCLINATION    = 88.9951
RA_OF_ASC_NODE = 66.4228
ARG_OF_PERICENTER = 155.8543
MEAN_ANOMALY   = 204.3383

EPHEMERIS_TYPE = 0
CLASSIFICATION_TYPE = U
NORAD_CAT_ID   = 66046
ELEMENT_SET_NO = 999
REV_AT_EPOCH   = 260
BSTAR          = .27525452E-3
MEAN_MOTION_DOT = .675E-5
MEAN_MOTION_DDOT = 0

CCSDS_OMM_VERS = 2.0
CREATION_DATE  = 
ORIGINATOR     = 

OBJECT_NAME    = QIANFAN-105
OBJECT_ID      = 2025-233Q
CENTER_NAME    = EARTH
REF_FRAME      = TEME
TIME_SYSTEM    = UTC
MEAN_ELEMENT_THEORY = SGP/SGP4

EPOCH          = 2025-11-04T13:58:29.220096
MEAN_MOTION    = 14.26326127
ECCENTRICITY   = .00157302
INCLINATION    = 88.9950
RA_OF_ASC_NODE = 66.4225
ARG_OF_PERICENTER = 155.9659
MEAN_ANOMALY   = 204.2272

EPHEMERIS_TYPE = 0
CLASSIFICATION_TYPE = U
NORAD_CAT_ID   = 66047
ELEMENT_SET_NO = 999
REV_AT_EPOCH   = 260
BSTAR          = .26933123E-3
MEAN_MOTION_DOT = .662E-5
MEAN_MOTION_DDOT = 0

CCSDS_OMM_VERS = 2.0
CREATION_DATE  = 
ORIGINATOR     = 

OBJECT_NAME    = QIANFAN-106
OBJECT_ID      = 2025-233R
CENTER_NAME    = EARTH
REF_FRAME      = TEME
TIME_SYSTEM    = UTC
MEAN_ELEMENT_THEORY = SGP/SGP4

EPOCH          = 2025-11-04T13:58:30.720000
MEAN_MOTION    = 14.26309465
ECCENTRICITY   = .00156107
INCLINATION    = 88.9951
RA_OF_ASC_NODE = 66.4227
ARG_OF_PERICENTER = 155.6632
MEAN_ANOMALY   = 204.5302

EPHEMERIS_TYPE = 0
CLASSIFICATION_TYPE = U
NORAD_CAT_ID   = 66048
ELEMENT_SET_NO = 999
REV_AT_EPOCH   = 260
BSTAR          = .26323108E-3
MEAN_MOTION_DOT = .647E-5
MEAN_MOTION_DDOT = 0

CCSDS_OMM_VERS = 2.0
CREATION_DATE  = 
ORIGINATOR     = 

OBJECT_NAME    = QIANFAN-107
OBJECT_ID      = 2025-233S
CENTER_NAME    = EARTH
REF_FRAME      = TEME
TIME_SYSTEM    = UTC
MEAN_ELEMENT_THEORY = SGP/SGP4

EPOCH          = 2025-11-04T13:58:14.310048
MEAN_MOTION    = 14.26338340
ECCENTRICITY   = .00164033
INCLINATION    = 88.9950
RA_OF_ASC_NODE = 66.4226
ARG_OF_PERICENTER = 153.8174
MEAN_ANOMALY   = 206.3853

EPHEMERIS_TYPE = 0
CLASSIFICATION_TYPE = U
NORAD_CAT_ID   = 66049
ELEMENT_SET_NO = 999
REV_AT_EPOCH   = 260
BSTAR          = .26329243E-3
MEAN_MOTION_DOT = .647E-5
MEAN_MOTION_DDOT = 0

