QIANFAN-96              
1 66038U 25233F   25308.58377894  .00000637  00000+0  26010-3 0  9994
2 66038  88.9951  66.4228 0016012 155.7380 204.4571 14.26155132  2603
QIANFAN-97              
1 66039U 25233G   25308.58368486  .00000639  00000+0  26057-3 0  9995
2 66039  88.9951  66.4228 0015584 155.1826 205.0121 14.26161050  2600
QIANFAN-98              
1 66040U 25233H   25308.58344018  .00000658  00000+0  26857-3 0  9991
2 66040  88.9951  66.4229 0015212 153.9161 206.2802 14.26182548  2603
QIANFAN-99              
1 66041U 25233J   25308.58331257  .00000647  00000+0  26406-3 0  9991
2 66041  88.9951  66.4228 0015361 153.0413 207.1581 14.26198012  2606
QIANFAN-100             
1 66042U 25233K   25308.58324160  .00000635  00000+0  25889-3 0  9998
2 66042  88.9951  66.4229 0015812 154.7165 205.4806 14.26213579  2608
QIANFAN-101             
1 66043U 25233L   25308.58089366  .00000428  00000+0  17119-3 0  9992
2 66043  88.9951  66.4224 0015742 152.9651 207.2366 14.26634618  2608
QIANFAN-102             
1 66044U 25233M   25308.58313706  .00000676  00000+0  27581-3 0  9990
2 66044  88.9950  66.4227 0016166 154.8251 205.3734 14.26217805  2602
QIANFAN-103             
1 66045U 25233N   25308.58284925  .00000657  00000+0  26787-3 0  9997
2 66045  88.9951  66.4229 0015568 153.5875 206.6116 14.26246975  2607
QIANFAN-104             
1 66046U 25233P   25308.58263734  .00000675  00000+0  27525-3 0  9994
2 66046  88.9951  66.4228 0015543 155.8543 204.3383 14.26267761  2604
QIANFAN-105             
1 66047U 25233Q   25308.58228264  .00000662  00000+0  26933-3 0  9992
2 66047  88.9950  66.4225 0015730 155.9659 204.2272 14.26326127  2606
QIANFAN-106             
1 66048U 25233R   25308.58230000  .00000647  00000+0  26323-3 0  9990
2 66048  88.9951  66.4227 0015610 155.6632 204.5302 14.26309465  2608
QIANFAN-107             
1 66049U 25233S   25308.58211007  .00000647  00000+0  26329-3 0  9993
2 66049  88.9950  66.4226 0016403 153.8174 206.3853 14.26338340  2604
